*******************************************************************************
Ephemeris / WWW_USER Fri Mar  7 10:54:27 2025 Pasadena, USA      / Horizons    
*******************************************************************************
Target body name: (2018 SL3)                      {source: JPL#9}
Center body name: Earth (399)                     {source: DE441}
Center-site name: Mauna Kea
*******************************************************************************
Start time      : A.D. 2018-Sep-13 04:36:00.0000 UT      
Stop  time      : A.D. 2018-Sep-13 15:59:00.0000 UT      
Step-size       : 1 minutes
*******************************************************************************
Target pole/equ : undefined
Target radii    : undefined                                                    
Center geodetic : 204.5278, 19.8260847, 4.21024   {E-lon(deg),Lat(deg),Alt(km)}
Center cylindric: 204.5278, 6006.35451, 2151.0229 {E-lon(deg),Dxy(km),Dz(km)}
Center pole/equ : ITRF93                          {East-longitude positive}
Center radii    : 6378.137, 6378.137, 6356.752 km {Equator_a, b, pole_c}       
Target primary  : Sun
Vis. interferer : MOON (R_eq= 1737.400) km        {source: DE441}
Rel. light bend : Sun                             {source: DE441}
Rel. lght bnd GM: 1.3271E+11 km^3/s^2                                          
Small-body perts: Yes                             {source: SB441-N16}
Atmos refraction: NO (AIRLESS)
RA format       : HMS
Time format     : CAL 
Calendar mode   : Mixed Julian/Gregorian
RTS-only print  : NO       
EOP file        : eop.250306.p250602                                           
EOP coverage    : DATA-BASED 1962-JAN-20 TO 2025-MAR-06. PREDICTS-> 2025-JUN-01
Units conversion: 1 au= 149597870.700 km, c= 299792.458 km/s, 1 day= 86400.0 s 
Table cut-offs 1: Elevation (-90.0deg=NO ),Airmass (>38.000=NO), Daylight (YES)
Table cut-offs 2: Solar elongation (  0.0,180.0=NO ),Local Hour Angle( 0.0=NO )
Table cut-offs 3: RA/DEC angular rate (     0.0=NO )                           
*******************************************************************************
Initial IAU76/J2000 heliocentric ecliptic osculating elements (au, days, deg.):
  EPOCH=  2458395.5 ! 2018-Oct-04.00 (TDB)         Residual RMS= .22865        
   EC= .523832704749462    QR= .7523817427125933   TP= 2458455.4342692108      
   OM= 5.37828463666876    W=  89.37669799750542   IN= 4.07069530013935        
  Equivalent ICRF heliocentric cartesian coordinates (au, au/d):
   X= 1.077301312774806E+00  Y= 1.718701187822678E-01  Z= 8.135917115484240E-02
  VX=-1.117713770282307E-02 VY= 1.338322199759621E-02 VZ= 7.048365308861806E-03
Asteroid physical parameters (km, seconds, rotational period in hours):        
   GM= n.a.                RAD= n.a.               ROTPER= n.a.                
   H= 24.5                 G= .150                 B-V= n.a.                   
                           ALBEDO= n.a.            STYP= n.a.                  
*******************************************************************************
 Date__(UT)__HR:MN     R.A._________(ICRF)_________DEC
******************************************************
$$SOE
 2018-Sep-13 10:45     00 40 38.564151 +00 26 19.08072
 2018-Sep-13 10:46     00 40 38.545891 +00 26 19.31799
 2018-Sep-13 10:47     00 40 38.527620 +00 26 19.55526
 2018-Sep-13 10:48     00 40 38.509340 +00 26 19.79254
 2018-Sep-13 10:49     00 40 38.491049 +00 26 20.02982
 2018-Sep-13 10:50     00 40 38.472750 +00 26 20.26710
 2018-Sep-13 10:51     00 40 38.454440 +00 26 20.50438
 2018-Sep-13 10:52     00 40 38.436122 +00 26 20.74167
 2018-Sep-13 10:53     00 40 38.417794 +00 26 20.97896
 2018-Sep-13 10:54     00 40 38.399458 +00 26 21.21625
 2018-Sep-13 10:55     00 40 38.381112 +00 26 21.45354
 2018-Sep-13 10:56     00 40 38.362758 +00 26 21.69084
 2018-Sep-13 10:57     00 40 38.344396 +00 26 21.92813
 2018-Sep-13 10:58     00 40 38.326025 +00 26 22.16543
 2018-Sep-13 10:59     00 40 38.307646 +00 26 22.40274
 2018-Sep-13 11:00     00 40 38.289260 +00 26 22.64004
 2018-Sep-13 11:01     00 40 38.270865 +00 26 22.87735
 2018-Sep-13 11:02     00 40 38.252463 +00 26 23.11466
 2018-Sep-13 11:03     00 40 38.234054 +00 26 23.35197
 2018-Sep-13 11:04     00 40 38.215637 +00 26 23.58928
 2018-Sep-13 11:05     00 40 38.197213 +00 26 23.82660
 2018-Sep-13 11:06     00 40 38.178782 +00 26 24.06392
 2018-Sep-13 11:07     00 40 38.160344 +00 26 24.30124
 2018-Sep-13 11:08     00 40 38.141900 +00 26 24.53856
 2018-Sep-13 11:09     00 40 38.123450 +00 26 24.77589
 2018-Sep-13 11:10     00 40 38.104993 +00 26 25.01322
 2018-Sep-13 11:11     00 40 38.086530 +00 26 25.25055
 2018-Sep-13 11:12     00 40 38.068061 +00 26 25.48788
 2018-Sep-13 11:13     00 40 38.049586 +00 26 25.72521
 2018-Sep-13 11:14     00 40 38.031106 +00 26 25.96255
 2018-Sep-13 11:15     00 40 38.012621 +00 26 26.19989
 2018-Sep-13 11:16     00 40 37.994130 +00 26 26.43723
 2018-Sep-13 11:17     00 40 37.975634 +00 26 26.67458
 2018-Sep-13 11:18     00 40 37.957133 +00 26 26.91192
 2018-Sep-13 11:19     00 40 37.938628 +00 26 27.14927
 2018-Sep-13 11:20     00 40 37.920117 +00 26 27.38662
 2018-Sep-13 11:21     00 40 37.901603 +00 26 27.62398
 2018-Sep-13 11:22     00 40 37.883084 +00 26 27.86133
 2018-Sep-13 11:23     00 40 37.864561 +00 26 28.09869
 2018-Sep-13 11:24     00 40 37.846035 +00 26 28.33605
 2018-Sep-13 11:25     00 40 37.827504 +00 26 28.57341
 2018-Sep-13 11:26     00 40 37.808970 +00 26 28.81078
 2018-Sep-13 11:27     00 40 37.790433 +00 26 29.04814
 2018-Sep-13 11:28     00 40 37.771893 +00 26 29.28551
 2018-Sep-13 11:29     00 40 37.753349 +00 26 29.52289
 2018-Sep-13 11:30     00 40 37.734803 +00 26 29.76026
 2018-Sep-13 11:31     00 40 37.716254 +00 26 29.99764
 2018-Sep-13 11:32     00 40 37.697702 +00 26 30.23501
 2018-Sep-13 11:33     00 40 37.679148 +00 26 30.47239
 2018-Sep-13 11:34  t  00 40 37.660592 +00 26 30.70978
 2018-Sep-13 11:35     00 40 37.642034 +00 26 30.94716
 2018-Sep-13 11:36     00 40 37.623473 +00 26 31.18455
 2018-Sep-13 11:37     00 40 37.604912 +00 26 31.42194
 2018-Sep-13 11:38     00 40 37.586349 +00 26 31.65933
 2018-Sep-13 11:39     00 40 37.567784 +00 26 31.89673
 2018-Sep-13 11:40     00 40 37.549218 +00 26 32.13412
 2018-Sep-13 11:41     00 40 37.530652 +00 26 32.37152
 2018-Sep-13 11:42     00 40 37.512084 +00 26 32.60892
 2018-Sep-13 11:43     00 40 37.493516 +00 26 32.84632
 2018-Sep-13 11:44     00 40 37.474947 +00 26 33.08373
 2018-Sep-13 11:45     00 40 37.456378 +00 26 33.32114
 2018-Sep-13 11:46     00 40 37.437809 +00 26 33.55855
 2018-Sep-13 11:47     00 40 37.419240 +00 26 33.79596
 2018-Sep-13 11:48     00 40 37.400671 +00 26 34.03337
 2018-Sep-13 11:49     00 40 37.382103 +00 26 34.27079
 2018-Sep-13 11:50     00 40 37.363535 +00 26 34.50821
 2018-Sep-13 11:51     00 40 37.344967 +00 26 34.74563
 2018-Sep-13 11:52     00 40 37.326401 +00 26 34.98306
 2018-Sep-13 11:53     00 40 37.307835 +00 26 35.22048
 2018-Sep-13 11:54     00 40 37.289271 +00 26 35.45791
 2018-Sep-13 11:55     00 40 37.270709 +00 26 35.69534
 2018-Sep-13 11:56     00 40 37.252147 +00 26 35.93277
 2018-Sep-13 11:57     00 40 37.233588 +00 26 36.17021
 2018-Sep-13 11:58     00 40 37.215030 +00 26 36.40764
 2018-Sep-13 11:59     00 40 37.196475 +00 26 36.64508
 2018-Sep-13 12:00     00 40 37.177921 +00 26 36.88253
 2018-Sep-13 12:01     00 40 37.159371 +00 26 37.11997
 2018-Sep-13 12:02     00 40 37.140822 +00 26 37.35742
 2018-Sep-13 12:03     00 40 37.122277 +00 26 37.59487
 2018-Sep-13 12:04     00 40 37.103734 +00 26 37.83232
 2018-Sep-13 12:05     00 40 37.085195 +00 26 38.06977
 2018-Sep-13 12:06     00 40 37.066658 +00 26 38.30722
 2018-Sep-13 12:07     00 40 37.048125 +00 26 38.54468
 2018-Sep-13 12:08     00 40 37.029596 +00 26 38.78214
 2018-Sep-13 12:09     00 40 37.011070 +00 26 39.01960
 2018-Sep-13 12:10     00 40 36.992549 +00 26 39.25707
 2018-Sep-13 12:11     00 40 36.974031 +00 26 39.49454
 2018-Sep-13 12:12     00 40 36.955518 +00 26 39.73201
 2018-Sep-13 12:13     00 40 36.937009 +00 26 39.96948
 2018-Sep-13 12:14     00 40 36.918505 +00 26 40.20695
 2018-Sep-13 12:15     00 40 36.900006 +00 26 40.44443
 2018-Sep-13 12:16     00 40 36.881511 +00 26 40.68191
 2018-Sep-13 12:17     00 40 36.863022 +00 26 40.91939
 2018-Sep-13 12:18     00 40 36.844537 +00 26 41.15687
 2018-Sep-13 12:19     00 40 36.826059 +00 26 41.39436
 2018-Sep-13 12:20     00 40 36.807586 +00 26 41.63184
 2018-Sep-13 12:21     00 40 36.789118 +00 26 41.86933
 2018-Sep-13 12:22     00 40 36.770657 +00 26 42.10683
 2018-Sep-13 12:23     00 40 36.752202 +00 26 42.34432
 2018-Sep-13 12:24     00 40 36.733753 +00 26 42.58182
 2018-Sep-13 12:25     00 40 36.715310 +00 26 42.81932
 2018-Sep-13 12:26     00 40 36.696874 +00 26 43.05682
 2018-Sep-13 12:27     00 40 36.678445 +00 26 43.29432
 2018-Sep-13 12:28     00 40 36.660023 +00 26 43.53183
 2018-Sep-13 12:29     00 40 36.641608 +00 26 43.76934
 2018-Sep-13 12:30     00 40 36.623200 +00 26 44.00685
 2018-Sep-13 12:31     00 40 36.604799 +00 26 44.24437
 2018-Sep-13 12:32     00 40 36.586407 +00 26 44.48188
 2018-Sep-13 12:33     00 40 36.568022 +00 26 44.71940
 2018-Sep-13 12:34     00 40 36.549645 +00 26 44.95692
 2018-Sep-13 12:35     00 40 36.531276 +00 26 45.19444
 2018-Sep-13 12:36     00 40 36.512915 +00 26 45.43197
 2018-Sep-13 12:37     00 40 36.494563 +00 26 45.66950
 2018-Sep-13 12:38     00 40 36.476219 +00 26 45.90703
 2018-Sep-13 12:39     00 40 36.457884 +00 26 46.14456
 2018-Sep-13 12:40     00 40 36.439558 +00 26 46.38210
 2018-Sep-13 12:41     00 40 36.421241 +00 26 46.61964
 2018-Sep-13 12:42     00 40 36.402934 +00 26 46.85718
 2018-Sep-13 12:43     00 40 36.384636 +00 26 47.09472
 2018-Sep-13 12:44     00 40 36.366347 +00 26 47.33227
 2018-Sep-13 12:45     00 40 36.348068 +00 26 47.56981
 2018-Sep-13 12:46     00 40 36.329799 +00 26 47.80736
 2018-Sep-13 12:47     00 40 36.311540 +00 26 48.04492
